SAUDISAT 1C (SO-50)     
1 27607U 02058C   26201.93815510  .00000570  00000+0  84993-4 0  9998
2 27607  64.5521  24.5545 0074346 256.2283 103.0541 14.83105633269469
SAUDISAT 2              
1 28371U 04025F   26201.96130199  .00000140  00000+0  42203-4 0  9990
2 28371  98.5524 202.8186 0024428 190.1819 169.8887 14.56700247170665
SAUDISAT 3              
1 31118U 07012B   26201.85158084  .00000156  00000+0  33341-4 0  9993
2 31118  98.1470 152.2777 0015843 117.9566 242.3247 14.71442302 32694
PISAT                   
1 41784U 16059B   26201.92871169  .00000603  00000+0  11001-3 0  9993
2 41784  97.8194 200.9345 0030565  97.3573 263.1108 14.69036210524699
FLYING LAPTOP           
1 42831U 17042G   26201.91192851  .00001915  00000+0  15267-3 0  9998
2 42831  97.4839 356.1821 0019390  14.3546 345.8225 15.01335051491514
SALSAT                  
1 46495U 20068K   26201.95728298  .00005257  00000+0  18248-3 0  9999
2 46495  97.8866 207.0909 0009821 172.7459 187.3924 15.30221969320520
